start=new Date('2022-02-07T00:00:00.000Z').valueOf();
sats=[{"RA_OF_ASC_NODE":"248.5077","RCS_SIZE":"LARGE","MEAN_MOTION_DOT":"-0.00002901","SITE":"AFETR","OBJECT_NAME":"STARLINK-2055","FILE":"3293822","ECCENTRICITY":"0.00015050","COUNTRY_CODE":"US","TLE_LINE1":"1 47358U 21005K   22037.90349778 -.00002901  00000-0 -17600-3 0  9997","REV_AT_EPOCH":"5861","MEAN_MOTION_DDOT":"0.0000000000000","PERIOD":"95.593","ARG_OF_PERICENTER":"73.8566","OBJECT_TYPE":"PAYLOAD","EPOCH":"2022-02-06T21:41:02.208192","TLE_LINE2":"2 47358  53.0542 248.5077 0001505  73.8566 286.2589 15.06387346 58610","EPHEMERIS_TYPE":"0","APOAPSIS":"548.295","MEAN_MOTION":"15.06387346","LAUNCH_DATE":"2021-01-20","BSTAR":"-0.00017600000000","INCLINATION":"53.0542","DECAY_DATE":null,"CENTER_NAME":"EARTH","OBJECT_ID":"2021-005K","MEAN_ELEMENT_THEORY":"SGP4","ELEMENT_SET_NO":"999","MEAN_ANOMALY":"286.2589","PERIAPSIS":"546.210","TIME_SYSTEM":"UTC","CLASSIFICATION_TYPE":"U","GP_ID":"195443216","REF_FRAME":"TEME","SEMIMAJOR_AXIS":"6925.387","NORAD_CAT_ID":"47358"},{"OBJECT_ID":"2021-005L","CENTER_NAME":"EARTH","MEAN_ELEMENT_THEORY":"SGP4","DECAY_DATE":null,"LAUNCH_DATE":"2021-01-20","BSTAR":"-0.00040460000000","INCLINATION":"53.0526","MEAN_MOTION":"15.06378534","NORAD_CAT_ID":"47359","SEMIMAJOR_AXIS":"6925.414","GP_ID":"195443966","REF_FRAME":"TEME","CLASSIFICATION_TYPE":"U","MEAN_ANOMALY":"286.3545","ELEMENT_SET_NO":"999","TIME_SYSTEM":"UTC","PERIAPSIS":"546.324","ECCENTRICITY":"0.00013790","RCS_SIZE":"LARGE","RA_OF_ASC_NODE":"273.4582","FILE":"3293822","SITE":"AFETR","OBJECT_NAME":"STARLINK-2069","MEAN_MOTION_DOT":"-0.00006299","OBJECT_TYPE":"PAYLOAD","APOAPSIS":"548.234","EPHEMERIS_TYPE":"0","EPOCH":"2022-02-06T21:56:17.059776","TLE_LINE2":"2 47359  53.0526 273.4582 0001379  73.7595 286.3545 15.06378534 58264","MEAN_MOTION_DDOT":"0.0000000000000","REV_AT_EPOCH":"5826","TLE_LINE1":"1 47359U 21005L   22037.91408634 -.00006299  00000-0 -40460-3 0  9990","COUNTRY_CODE":"US","ARG_OF_PERICENTER":"73.7595","PERIOD":"95.594"},{"TLE_LINE2":"2 47360  53.0543 243.7367 0001696  67.7168 292.4000 15.06392647 58688","EPOCH":"2022-02-06T20:30:02.691648","EPHEMERIS_TYPE":"0","APOAPSIS":"548.411","OBJECT_TYPE":"PAYLOAD","PERIOD":"95.593","ARG_OF_PERICENTER":"67.7168","COUNTRY_CODE":"US","TLE_LINE1":"1 47360U 21005M   22037.85419782 -.00001579  00000-0 -87161-4 0  9997","REV_AT_EPOCH":"5868","MEAN_MOTION_DDOT":"0.0000000000000","ECCENTRICITY":"0.00016960","SITE":"AFETR","MEAN_MOTION_DOT":"-0.00001579","OBJECT_NAME":"STARLINK-2070","FILE":"3293822","RA_OF_ASC_NODE":"243.7367","RCS_SIZE":"LARGE","CLASSIFICATION_TYPE":"U","GP_ID":"195442714","REF_FRAME":"TEME","SEMIMAJOR_AXIS":"6925.371","NORAD_CAT_ID":"47360","TIME_SYSTEM":"UTC","PERIAPSIS":"546.062","ELEMENT_SET_NO":"999","MEAN_ANOMALY":"292.4000","CENTER_NAME":"EARTH","MEAN_ELEMENT_THEORY":"SGP4","OBJECT_ID":"2021-005M","MEAN_MOTION":"15.06392647","INCLINATION":"53.0543","LAUNCH_DATE":"2021-01-20","BSTAR":"-0.00008716100000","DECAY_DATE":null},{"ELEMENT_SET_NO":"999","MEAN_ANOMALY":"285.3632","PERIAPSIS":"546.050","TIME_SYSTEM":"UTC","GP_ID":"195442964","REF_FRAME":"TEME","CLASSIFICATION_TYPE":"U","NORAD_CAT_ID":"47361","SEMIMAJOR_AXIS":"6925.388","INCLINATION":"53.0551","LAUNCH_DATE":"2021-01-20","BSTAR":"-0.00004928800000","MEAN_MOTION":"15.06387050","DECAY_DATE":null,"CENTER_NAME":"EARTH","MEAN_ELEMENT_THEORY":"SGP4","OBJECT_ID":"2021-005N","COUNTRY_CODE":"US","TLE_LINE1":"1 47361U 21005N   22037.84451678 -.00001015  00000-0 -49288-4 0  9990","MEAN_MOTION_DDOT":"0.0000000000000","REV_AT_EPOCH":"5860","PERIOD":"95.593","ARG_OF_PERICENTER":"74.7549","OBJECT_TYPE":"PAYLOAD","EPHEMERIS_TYPE":"0","TLE_LINE2":"2 47361  53.0551 248.7646 0001738  74.7549 285.3632 15.06387050 58607","EPOCH":"2022-02-06T20:16:06.249792","APOAPSIS":"548.457","RA_OF_ASC_NODE":"248.7646","RCS_SIZE":"LARGE","OBJECT_NAME":"STARLINK-2071","SITE":"AFETR","MEAN_MOTION_DOT":"-0.00001015","FILE":"3293822","ECCENTRICITY":"0.00017380"},{"ECCENTRICITY":"0.00015470","RA_OF_ASC_NODE":"278.2753","RCS_SIZE":"LARGE","SITE":"AFETR","OBJECT_NAME":"STARLINK-2076","MEAN_MOTION_DOT":"-0.00002853","FILE":"3293822","OBJECT_TYPE":"PAYLOAD","EPHEMERIS_TYPE":"0","TLE_LINE2":"2 47362  53.0541 278.2753 0001547  64.0127 296.1022 15.06372448 58200","EPOCH":"2022-02-06T22:56:40.655040","APOAPSIS":"548.369","COUNTRY_CODE":"US","TLE_LINE1":"1 47362U 21005P   22037.95602610 -.00002853  00000-0 -17281-3 0  9995","MEAN_MOTION_DDOT":"0.0000000000000","REV_AT_EPOCH":"5820","PERIOD":"95.594","ARG_OF_PERICENTER":"64.0127","OBJECT_ID":"2021-005P","CENTER_NAME":"EARTH","MEAN_ELEMENT_THEORY":"SGP4","INCLINATION":"53.0541","LAUNCH_DATE":"2021-01-20","BSTAR":"-0.00017281000000","MEAN_MOTION":"15.06372448","DECAY_DATE":null,"GP_ID":"195443716","REF_FRAME":"TEME","CLASSIFICATION_TYPE":"U","NORAD_CAT_ID":"47362","SEMIMAJOR_AXIS":"6925.433","ELEMENT_SET_NO":"999","MEAN_ANOMALY":"296.1022","PERIAPSIS":"546.227","TIME_SYSTEM":"UTC"},{"DECAY_DATE":null,"MEAN_MOTION":"15.06389295","INCLINATION":"53.0548","LAUNCH_DATE":"2021-01-20","BSTAR":"-0.00029162000000","OBJECT_ID":"2021-005Q","CENTER_NAME":"EARTH","MEAN_ELEMENT_THEORY":"SGP4","MEAN_ANOMALY":"286.5629","ELEMENT_SET_NO":"999","PERIAPSIS":"546.158","TIME_SYSTEM":"UTC","SEMIMAJOR_AXIS":"6925.381","NORAD_CAT_ID":"47363","CLASSIFICATION_TYPE":"U","REF_FRAME":"TEME","GP_ID":"195443467","RCS_SIZE":"LARGE","RA_OF_ASC_NODE":"278.5490","FILE":"3293822","MEAN_MOTION_DOT":"-0.00004621","SITE":"AFETR","OBJECT_NAME":"STARLINK-2077","ECCENTRICITY":"0.00015720","REV_AT_EPOCH":"5819","MEAN_MOTION_DDOT":"0.0000000000000","COUNTRY_CODE":"US","TLE_LINE1":"1 47363U 21005Q   22037.89336136 -.00004621  00000-0 -29162-3 0  9992","ARG_OF_PERICENTER":"73.5532","PERIOD":"95.593","OBJECT_TYPE":"PAYLOAD","APOAPSIS":"548.335","TLE_LINE2":"2 47363  53.0548 278.5490 0001572  73.5532 286.5629 15.06389295 58194","EPOCH":"2022-02-06T21:26:26.421504","EPHEMERIS_TYPE":"0"},{"ECCENTRICITY":"0.00085150","SITE":"AFETR","MEAN_MOTION_DOT":"-0.00070022","OBJECT_NAME":"STARLINK-2080","FILE":"3293822","RA_OF_ASC_NODE":"122.9012","RCS_SIZE":"LARGE","TLE_LINE2":"2 47365  53.0406 122.9012 0008515 273.7855  86.2190 15.76557745 60350","EPOCH":"2022-02-06T16:33:59.121504","EPHEMERIS_TYPE":"0","APOAPSIS":"345.925","OBJECT_TYPE":"PAYLOAD","PERIOD":"91.338","ARG_OF_PERICENTER":"273.7855","COUNTRY_CODE":"US","TLE_LINE1":"1 47365U 21005S   22037.69026761 -.00070022  00000-0 -42934-3 0  9992","REV_AT_EPOCH":"6035","MEAN_MOTION_DDOT":"0.0000000000000","OBJECT_ID":"2021-005S","CENTER_NAME":"EARTH","MEAN_ELEMENT_THEORY":"SGP4","MEAN_MOTION":"15.76557745","BSTAR":"-0.00042934000000","LAUNCH_DATE":"2021-01-20","INCLINATION":"53.0406","DECAY_DATE":null,"CLASSIFICATION_TYPE":"U","REF_FRAME":"TEME","GP_ID":"195442215","SEMIMAJOR_AXIS":"6718.339","NORAD_CAT_ID":"47365","TIME_SYSTEM":"UTC","PERIAPSIS":"334.483","ELEMENT_SET_NO":"999","MEAN_ANOMALY":"86.2190"},{"ECCENTRICITY":"0.00016300","FILE":"3293822","SITE":"AFETR","MEAN_MOTION_DOT":"-0.00002082","OBJECT_NAME":"STARLINK-2081","RCS_SIZE":"LARGE","RA_OF_ASC_NODE":"278.4449","APOAPSIS":"548.415","EPOCH":"2022-02-06T22:03:35.603712","TLE_LINE2":"2 47366  53.0530 278.4449 0001630  39.1618 320.9489 15.06376301 58190","EPHEMERIS_TYPE":"0","OBJECT_TYPE":"PAYLOAD","PERIOD":"95.594","ARG_OF_PERICENTER":"39.1618","REV_AT_EPOCH":"5819","MEAN_MOTION_DDOT":"0.0000000000000","COUNTRY_CODE":"US","TLE_LINE1":"1 47366U 21005T   22037.91916208 -.00002082  00000-0 -12102-3 0  9997","OBJECT_ID":"2021-005T","MEAN_ELEMENT_THEORY":"SGP4","CENTER_NAME":"EARTH","DECAY_DATE":null,"MEAN_MOTION":"15.06376301","BSTAR":"-0.00012102000000","LAUNCH_DATE":"2021-01-20","INCLINATION":"53.0530","SEMIMAJOR_AXIS":"6925.421","NORAD_CAT_ID":"47366","CLASSIFICATION_TYPE":"U","GP_ID":"195442465","REF_FRAME":"TEME","PERIAPSIS":"546.157","TIME_SYSTEM":"UTC","MEAN_ANOMALY":"320.9489","ELEMENT_SET_NO":"999"},{"ECCENTRICITY":"0.00016870","FILE":"3293822","OBJECT_NAME":"STARLINK-2082","SITE":"AFETR","MEAN_MOTION_DOT":"-0.00000638","RCS_SIZE":"LARGE","RA_OF_ASC_NODE":"278.3347","APOAPSIS":"548.417","EPOCH":"2022-02-06T22:40:44.054112","TLE_LINE2":"2 47367  53.0548 278.3347 0001687  60.2807 299.8349 15.06388542 58204","EPHEMERIS_TYPE":"0","OBJECT_TYPE":"PAYLOAD","ARG_OF_PERICENTER":"60.2807","PERIOD":"95.593","REV_AT_EPOCH":"5820","MEAN_MOTION_DDOT":"0.0000000000000","COUNTRY_CODE":"US","TLE_LINE1":"1 47367U 21005U   22037.94495433 -.00000638  00000-0 -23973-4 0  9997","MEAN_ELEMENT_THEORY":"SGP4","OBJECT_ID":"2021-005U","CENTER_NAME":"EARTH","DECAY_DATE":null,"MEAN_MOTION":"15.06388542","INCLINATION":"53.0548","LAUNCH_DATE":"2021-01-20","BSTAR":"-0.00002397300000","SEMIMAJOR_AXIS":"6925.384","NORAD_CAT_ID":"47367","CLASSIFICATION_TYPE":"U","REF_FRAME":"TEME","GP_ID":"195443217","PERIAPSIS":"546.080","TIME_SYSTEM":"UTC","MEAN_ANOMALY":"299.8349","ELEMENT_SET_NO":"999"},{"CENTER_NAME":"EARTH","OBJECT_ID":"2021-005V","MEAN_ELEMENT_THEORY":"SGP4","MEAN_MOTION":"15.06390803","BSTAR":"-0.00025821000000","LAUNCH_DATE":"2021-01-20","INCLINATION":"53.0540","DECAY_DATE":null,"CLASSIFICATION_TYPE":"U","GP_ID":"195443967","REF_FRAME":"TEME","SEMIMAJOR_AXIS":"6925.377","NORAD_CAT_ID":"47368","TIME_SYSTEM":"UTC","PERIAPSIS":"545.997","ELEMENT_SET_NO":"999","MEAN_ANOMALY":"294.2184","ECCENTRICITY":"0.00017970","SITE":"AFETR","MEAN_MOTION_DOT":"-0.00004125","OBJECT_NAME":"STARLINK-2084","FILE":"3293822","RA_OF_ASC_NODE":"278.3512","RCS_SIZE":"LARGE","EPOCH":"2022-02-06T22:30:08.106912","TLE_LINE2":"2 47368  53.0540 278.3512 0001797  65.8993 294.2184 15.06390803 58209","EPHEMERIS_TYPE":"0","APOAPSIS":"548.486","OBJECT_TYPE":"PAYLOAD","ARG_OF_PERICENTER":"65.8993","PERIOD":"95.593","TLE_LINE1":"1 47368U 21005V   22037.93759383 -.00004125  00000-0 -25821-3 0  9992","COUNTRY_CODE":"US","REV_AT_EPOCH":"5820","MEAN_MOTION_DDOT":"0.0000000000000"}];
